{
"type": "FeatureCollection",
"name": "red_agua",
"crs": { "type": "name", "properties": { "name": "urn:ogc:def:crs:OGC:1.3:CRS84" } },
"features": [
{ "type": "Feature", "properties": { "id": 1, "Material": "PEAD", "Diametro": 140, "Tapada": 1.4 }, "geometry": { "type": "MultiLineString", "coordinates": [ [ [ -68.023243534234638, -38.974410676946114 ], [ -68.023250745336824, -38.975245981690733 ], [ -68.023221900928093, -38.975683251386592 ], [ -68.022933456840818, -38.97587946126994 ], [ -68.022046491272405, -38.976109306441906 ], [ -68.021080203579999, -38.976462481715664 ], [ -68.019248583625739, -38.976810049313016 ], [ -68.018130862787501, -38.977034285567264 ], [ -68.016969875336187, -38.977449120765684 ], [ -68.016176654096128, -38.977959252610347 ], [ -68.015448332775748, -38.978413322919046 ], [ -68.015203155301549, -38.978648765636507 ], [ -68.014929133418633, -38.978648765636507 ], [ -68.012960502522901, -38.978648765636507 ], [ -68.012736958355262, -38.97849740969373 ], [ -68.012563891902886, -38.978076974821832 ], [ -68.012434092063614, -38.977566843825272 ], [ -68.012073536954503, -38.977168826978975 ], [ -68.011222626896995, -38.976423240105568 ], [ -68.010530361087518, -38.976299909189379 ], [ -68.00957849559947, -38.976176578058407 ], [ -68.008828540972516, -38.976019610853797 ], [ -68.007847831075765, -38.975829007351862 ], [ -68.007487275966639, -38.975503859017472 ], [ -68.006823854565894, -38.974842345728881 ], [ -68.006766165748445, -38.974001430085984 ], [ -68.006809432361536, -38.97332869038236 ], [ -68.006621943704801, -38.972667156775572 ] ] ] } }
]
}
